{"type":"FeatureCollection","features":[{"type":"Feature","geometry":{"type":"Point","coordinates":[126.58076894423286,37.021409868724724]},"properties":{"rank":1,"east_m":112.5,"north_m":-147.5,"altitude_agl_m":50,"gimbal_pitch_deg":-90,"camera_yaw_deg":0,"weighted_gain_m2":3790.0,"deficient_area_m2":3825.0,"bounds":[69.79537366548043,-171.52135231316726,155.20462633451956,-123.47864768683274],"longitude":126.58076894423286,"latitude":37.021409868724724}},{"type":"Feature","geometry":{"type":"Point","coordinates":[126.58065656594235,37.023572458174606]},"properties":{"rank":2,"east_m":102.5,"north_m":92.5,"altitude_agl_m":50,"gimbal_pitch_deg":-90,"camera_yaw_deg":0,"weighted_gain_m2":3740.0,"deficient_area_m2":3825.0,"bounds":[59.795373665480426,68.47864768683274,145.20462633451956,116.52135231316726],"longitude":126.58065656594235,"latitude":37.023572458174606}},{"type":"Feature","geometry":{"type":"Point","coordinates":[126.57975753961821,37.02131976083098]},"properties":{"rank":3,"east_m":22.5,"north_m":-157.5,"altitude_agl_m":50,"gimbal_pitch_deg":-90,"camera_yaw_deg":0,"weighted_gain_m2":3645.0,"deficient_area_m2":3825.0,"bounds":[-20.204626334519574,-181.52135231316726,65.20462633451957,-133.47864768683274],"longitude":126.57975753961821,"latitude":37.02131976083098}},{"type":"Feature","geometry":{"type":"Point","coordinates":[126.57795948696996,37.023572458174606]},"properties":{"rank":4,"east_m":-137.5,"north_m":92.5,"altitude_agl_m":50,"gimbal_pitch_deg":-90,"camera_yaw_deg":0,"weighted_gain_m2":3555.0,"deficient_area_m2":3825.0,"bounds":[-180.20462633451956,68.47864768683274,-94.79537366548043,116.52135231316726],"longitude":126.57795948696996,"latitude":37.023572458174606}},{"type":"Feature","geometry":{"type":"Point","coordinates":[126.57795948696996,37.02131976083098]},"properties":{"rank":5,"east_m":-137.5,"north_m":-157.5,"altitude_agl_m":50,"gimbal_pitch_deg":-90,"camera_yaw_deg":0,"weighted_gain_m2":3450.0,"deficient_area_m2":3825.0,"bounds":[-180.20462633451956,-181.52135231316726,-94.79537366548043,-133.47864768683274],"longitude":126.57795948696996,"latitude":37.02131976083098}},{"type":"Feature","geometry":{"type":"Point","coordinates":[126.5807127550876,37.02181535424658]},"properties":{"rank":6,"east_m":107.5,"north_m":-102.5,"altitude_agl_m":50,"gimbal_pitch_deg":-90,"camera_yaw_deg":0,"weighted_gain_m2":3085.0,"deficient_area_m2":3775.0,"bounds":[64.79537366548043,-126.52135231316726,150.20462633451956,-78.47864768683274],"longitude":126.5807127550876,"latitude":37.02181535424658}},{"type":"Feature","geometry":{"type":"Point","coordinates":[126.57975753961821,37.023572458174606]},"properties":{"rank":7,"east_m":22.5,"north_m":92.5,"altitude_agl_m":50,"gimbal_pitch_deg":-90,"camera_yaw_deg":0,"weighted_gain_m2":2680.0,"deficient_area_m2":3275.0,"bounds":[-20.204626334519574,68.47864768683274,65.20462633451957,116.52135231316726],"longitude":126.57975753961821,"latitude":37.023572458174606}},{"type":"Feature","geometry":{"type":"Point","coordinates":[126.58076894423286,37.02321202659962]},"properties":{"rank":8,"east_m":112.5,"north_m":52.5,"altitude_agl_m":50,"gimbal_pitch_deg":-90,"camera_yaw_deg":0,"weighted_gain_m2":2530.0,"deficient_area_m2":3000.0,"bounds":[69.79537366548043,28.47864768683274,155.20462633451956,76.52135231316726],"longitude":126.58076894423286,"latitude":37.02321202659962}},{"type":"Feature","geometry":{"type":"Point","coordinates":[126.57885851329408,37.02131976083098]},"properties":{"rank":9,"east_m":-57.5,"north_m":-157.5,"altitude_agl_m":50,"gimbal_pitch_deg":-90,"camera_yaw_deg":0,"weighted_gain_m2":2155.0,"deficient_area_m2":3000.0,"bounds":[-100.20462633451957,-181.52135231316726,-14.795373665480426,-133.47864768683274],"longitude":126.57885851329408,"latitude":37.02131976083098}},{"type":"Feature","geometry":{"type":"Point","coordinates":[126.57779091953418,37.02316697265275]},"properties":{"rank":10,"east_m":-152.5,"north_m":47.5,"altitude_agl_m":50,"gimbal_pitch_deg":-90,"camera_yaw_deg":0,"weighted_gain_m2":2070.0,"deficient_area_m2":2525.0,"bounds":[-195.20462633451956,23.47864768683274,-109.79537366548043,71.52135231316726],"longitude":126.57779091953418,"latitude":37.02316697265275}}]}